ALOS (DAICHI)           
1 28931U 06002A   26005.59500709  .00002125  00000+0  36611-3 0  9998
2 28931  98.1128 321.9191 0002014 101.4176 258.7256 14.69578072 64214
H-2A R/B                
1 28932U 06002B   26007.94285014  .00008570  00000+0  44376-3 0  9996
2 28932  98.2331 149.8451 0054624  88.1246 272.6239 15.15180810 85233
RESURS-DK 1             
1 29228U 06021A   26007.49497448  .00002808  00000+0  16772-3 0  9999
2 29228  69.9340  35.2682 0006642 237.6203 122.4321 15.12339504 78275
CZ-4B R/B               
1 29507U 06046C   26007.84087294  .00004352  00000+0  22547-3 0  9992
2 29507  97.5696  52.9083 0035188 117.2286 243.2539 15.16188454 50822
CZ-2C R/B               
1 31114U 07010B   26007.92695492  .00000150  00000+0  87483-4 0  9998
2 31114  98.3972 124.2602 0060060 110.6252 250.1381 14.20222385971091
COSMO-SKYMED 1          
1 31598U 07023A   26007.94290091  .00004186  00000+0  37835-3 0  9994
2 31598  97.8846 198.5180 0001615  84.6918 275.4487 14.96007188  5827
COSMOS 2428             
1 31792U 07029A   26007.93345611  .00000318  00000+0  19644-3 0  9995
2 31792  70.9386 330.8833 0005198 347.7639  12.3355 14.12904578955512
SL-16 R/B               
1 31793U 07029B   26007.97500770 -.00000057  00000+0 -45203-5 0  9993
2 31793  70.9774 300.0094 0002183 272.9518 158.4421 14.14825823956781
KORONAS-FOTON           
1 33504U 09003A   26007.98022430  .00009953  00000+0  23381-3 0  9995
2 33504  82.4323 338.9032 0012094  26.7672 333.4196 15.41777926936380
CZ-2C R/B               
1 37731U 11030B   26007.87619679  .00001450  00000+0  18979-3 0  9990
2 37731  97.8449 326.4108 0052475 186.7057 231.3210 14.80994325781097
H-2A R/B                
1 38341U 12025E   26007.95158308  .00002549  00000+0  23677-3 0  9990
2 38341  98.4635 330.2107 0045565 149.9427 210.4421 14.94638647739143
SHIJIAN-16 (SJ-16)      
1 39358U 13057A   26007.95404943  .00000389  00000+0  41058-4 0  9998
2 39358  74.9742 300.0501 0017850 259.2776 100.6403 14.92107761662445
